{
    "Addressbook": [
        {
            "name": "Matthew Hurrell",
            "address": "5 Willow Green, Knutsford, Cheshire",
            "postcode": "WA16 6AX"
        },
        {
            "name": "Tim Hurrell",
            "address": "5 Cherry Blosson Grove, Leamington, Warwickshire",
            "postcode": "CV31 2RT"
        },
        {
            "name": "Queen",
            "address": "Palace",
            "postcode": "SW1"
        },
        {
            "name": "Queen",
            "address": "Palace",
            "postcode": "SW1"
        },
        {
            "name": "Queen",
            "address": "Palace",
            "postcode": "SW1"
        },
        {
            "name": "Queen",
            "address": "Palace",
            "postcode": "SW1"
        },
        {
            "name": "Queen",
            "address": "Palace",
            "postcode": "SW1"
        },
        {
            "name": "Queen",
            "address": "Palace",
            "postcode": "SW1"
        },
        {
            "name": "Queen",
            "address": "Palace",
            "postcode": "SW1"
        },
        {
            "name": "Queen",
            "address": "Palace",
            "postcode": "SW1"
        },
        {
            "name": "Queen",
            "address": "Palace",
            "postcode": "SW1"
        },
        {
            "name": "Queen",
            "address": "Palace",
            "postcode": "SW1"
        },
        {
            "name": "Queen",
            "address": "Palace",
            "postcode": "SW1"
        },
        {
            "name": "Queen",
            "address": "Palace",
            "postcode": "SW1"
        },
        {
            "name": "Queen",
            "address": "Palace",
            "postcode": "SW1"
        },
        {
            "name": "Queen",
            "address": "Palace",
            "postcode": "SW1"
        },
        {
            "name": "Queen",
            "address": "Palace",
            "postcode": "SW1"
        },
        {
            "name": "Queen",
            "address": "Palace",
            "postcode": "SW1"
        }
    ]
}